{
  "type": "FeatureCollection",
  "features": [
    {
      "type": "Feature",
      "properties": {
        "norad_id": 66394,
        "name": "STARLINK-35672",
        "group": "last-30-days",
        "lat": 40.10464009411935,
        "lon": -42.20930034969281,
        "alt_km": 440.8356508124525,
        "timestamp": "2025-12-09T16:56:35.357421+00:00",
        "meta_object_name": "STARLINK-35672",
        "meta_object_id": "2025-257Q",
        "meta_epoch": "2025-12-09T02:41:25.904832",
        "meta_mean_motion": 15.39631651,
        "meta_eccentricity": 0.00012385,
        "meta_inclination": 53.1593,
        "meta_ra_of_asc_node": 281.4337,
        "meta_arg_of_pericenter": 83.799,
        "meta_mean_anomaly": 276.3156,
        "meta_ephemeris_type": 0,
        "meta_classification_type": "U",
        "meta_norad_cat_id": 66394,
        "meta_element_set_no": 999,
        "meta_rev_at_epoch": 581,
        "meta_bstar": 0.0028492606,
        "meta_mean_motion_dot": 0.00115352,
        "meta_mean_motion_ddot": 0,
        "tle_line1": "1 66394U 25257Q   25343.11210538  .00115352  00000+0  28493-2 0  9991",
        "tle_line2": "2 66394  53.1593 281.4337 0001238  83.7990 276.3156 15.39631651  5818"
      },
      "geometry": {
        "type": "Point",
        "coordinates": [
          -42.20930034969281,
          40.10464009411935
        ]
      }
    },
    {
      "type": "Feature",
      "properties": {
        "norad_id": 66395,
        "name": "STARLINK-35681",
        "group": "last-30-days",
        "lat": 51.34478657314243,
        "lon": -11.805455444094298,
        "alt_km": 439.84412652697756,
        "timestamp": "2025-12-09T16:56:35.357432+00:00",
        "meta_object_name": "STARLINK-35681",
        "meta_object_id": "2025-257R",
        "meta_epoch": "2025-12-09T12:00:02.000160",
        "meta_mean_motion": 15.39581781,
        "meta_eccentricity": 9.83e-05,
        "meta_inclination": 53.1595,
        "meta_ra_of_asc_node": 279.5595,
        "meta_arg_of_pericenter": 105.9789,
        "meta_mean_anomaly": 269.3983,
        "meta_ephemeris_type": 0,
        "meta_classification_type": "U",
        "meta_norad_cat_id": 66395,
        "meta_element_set_no": 999,
        "meta_rev_at_epoch": 581,
        "meta_bstar": 0.00029131,
        "meta_mean_motion_dot": 0.00011255,
        "meta_mean_motion_ddot": 0,
        "tle_line1": "1 66395U 25257R   25343.50002315  .00011255  00000+0  29131-3 0  9995",
        "tle_line2": "2 66395  53.1595 279.5595 0000983 105.9789 269.3983 15.39581781  5812"
      },
      "geometry": {
        "type": "Point",
        "coordinates": [
          -11.805455444094298,
          51.34478657314243
        ]
      }
    },
    {
      "type": "Feature",
      "properties": {
        "norad_id": 66396,
        "name": "STARLINK-35669",
        "group": "last-30-days",
        "lat": 51.822989629843605,
        "lon": -8.952493526776205,
        "alt_km": 439.7011402263197,
        "timestamp": "2025-12-09T16:56:35.357445+00:00",
        "meta_object_name": "STARLINK-35669",
        "meta_object_id": "2025-257S",
        "meta_epoch": "2025-12-09T12:00:02.000160",
        "meta_mean_motion": 15.39583412,
        "meta_eccentricity": 0.0001021,
        "meta_inclination": 53.1595,
        "meta_ra_of_asc_node": 279.5549,
        "meta_arg_of_pericenter": 97.6015,
        "meta_mean_anomaly": 279.6086,
        "meta_ephemeris_type": 0,
        "meta_classification_type": "U",
        "meta_norad_cat_id": 66396,
        "meta_element_set_no": 999,
        "meta_rev_at_epoch": 597,
        "meta_bstar": 0.00029739,
        "meta_mean_motion_dot": 0.000115,
        "meta_mean_motion_ddot": 0,
        "tle_line1": "1 66396U 25257S   25343.50002315  .00011500  00000+0  29739-3 0  9993",
        "tle_line2": "2 66396  53.1595 279.5549 0001021  97.6015 279.6086 15.39583412  5973"
      },
      "geometry": {
        "type": "Point",
        "coordinates": [
          -8.952493526776205,
          51.822989629843605
        ]
      }
    },
    {
      "type": "Feature",
      "properties": {
        "norad_id": 66397,
        "name": "STARLINK-35510",
        "group": "last-30-days",
        "lat": 51.15702798364083,
        "lon": 29.94046777138093,
        "alt_km": 439.4872913340678,
        "timestamp": "2025-12-09T16:56:35.357456+00:00",
        "meta_object_name": "STARLINK-35510",
        "meta_object_id": "2025-257T",
        "meta_epoch": "2025-12-09T12:00:02.000160",
        "meta_mean_motion": 15.39672014,
        "meta_eccentricity": 0.0001298,
        "meta_inclination": 53.1598,
        "meta_ra_of_asc_node": 279.5079,
        "meta_arg_of_pericenter": 94.6168,
        "meta_mean_anomaly": 306.4714,
        "meta_ephemeris_type": 0,
        "meta_classification_type": "U",
        "meta_norad_cat_id": 66397,
        "meta_element_set_no": 999,
        "meta_rev_at_epoch": 597,
        "meta_bstar": -0.0035021,
        "meta_mean_motion_dot": -0.00138207,
        "meta_mean_motion_ddot": 0,
        "tle_line1": "1 66397U 25257T   25343.50002315 -.00138207  00000+0 -35021-2 0  9990",
        "tle_line2": "2 66397  53.1598 279.5079 0001298  94.6168 306.4714 15.39672014  5971"
      },
      "geometry": {
        "type": "Point",
        "coordinates": [
          29.94046777138093,
          51.15702798364083
        ]
      }
    },
    {
      "type": "Feature",
      "properties": {
        "norad_id": 66398,
        "name": "STARLINK-35642",
        "group": "last-30-days",
        "lat": 38.43423798641105,
        "lon": 61.97585962525972,
        "alt_km": 441.56133335045706,
        "timestamp": "2025-12-09T16:56:35.357466+00:00",
        "meta_object_name": "STARLINK-35642",
        "meta_object_id": "2025-257U",
        "meta_epoch": "2025-12-09T12:00:02.000160",
        "meta_mean_motion": 15.39587989,
        "meta_eccentricity": 0.0001325,
        "meta_inclination": 53.1596,
        "meta_ra_of_asc_node": 279.456,
        "meta_arg_of_pericenter": 95.5196,
        "meta_mean_anomaly": 331.3531,
        "meta_ephemeris_type": 0,
        "meta_classification_type": "U",
        "meta_norad_cat_id": 66398,
        "meta_element_set_no": 999,
        "meta_rev_at_epoch": 597,
        "meta_bstar": 0.00032715,
        "meta_mean_motion_dot": 0.00012694,
        "meta_mean_motion_ddot": 0,
        "tle_line1": "1 66398U 25257U   25343.50002315  .00012694  00000+0  32715-3 0  9998",
        "tle_line2": "2 66398  53.1596 279.4560 0001325  95.5196 331.3531 15.39587989  5976"
      },
      "geometry": {
        "type": "Point",
        "coordinates": [
          61.97585962525972,
          38.43423798641105
        ]
      }
    },
    {
      "type": "Feature",
      "properties": {
        "norad_id": 66399,
        "name": "STARLINK-35657",
        "group": "last-30-days",
        "lat": 50.59101912285166,
        "lon": 32.68843410016296,
        "alt_km": 439.75474582608877,
        "timestamp": "2025-12-09T16:56:35.357477+00:00",
        "meta_object_name": "STARLINK-35657",
        "meta_object_id": "2025-257V",
        "meta_epoch": "2025-12-09T12:00:02.000160",
        "meta_mean_motion": 15.39582488,
        "meta_eccentricity": 0.0001137,
        "meta_inclination": 53.1597,
        "meta_ra_of_asc_node": 279.5035,
        "meta_arg_of_pericenter": 104.7013,
        "meta_mean_anomaly": 298.2559,
        "meta_ephemeris_type": 0,
        "meta_classification_type": "U",
        "meta_norad_cat_id": 66399,
        "meta_element_set_no": 999,
        "meta_rev_at_epoch": 597,
        "meta_bstar": 0.00031032,
        "meta_mean_motion_dot": 0.00012018,
        "meta_mean_motion_ddot": 0,
        "tle_line1": "1 66399U 25257V   25343.50002315  .00012018  00000+0  31032-3 0  9990",
        "tle_line2": "2 66399  53.1597 279.5035 0001137 104.7013 298.2559 15.39582488  5978"
      },
      "geometry": {
        "type": "Point",
        "coordinates": [
          32.68843410016296,
          50.59101912285166
        ]
      }
    },
    {
      "type": "Feature",
      "properties": {
        "norad_id": 66400,
        "name": "STARLINK-35667",
        "group": "last-30-days",
        "lat": 19.916568256408926,
        "lon": 82.67090402765571,
        "alt_km": 444.883337315905,
        "timestamp": "2025-12-09T16:56:35.357488+00:00",
        "meta_object_name": "STARLINK-35667",
        "meta_object_id": "2025-257W",
        "meta_epoch": "2025-12-09T12:00:02.000160",
        "meta_mean_motion": 15.39590418,
        "meta_eccentricity": 0.0001248,
        "meta_inclination": 53.1594,
        "meta_ra_of_asc_node": 279.4037,
        "meta_arg_of_pericenter": 92.162,
        "meta_mean_anomaly": 0.4562,
        "meta_ephemeris_type": 0,
        "meta_classification_type": "U",
        "meta_norad_cat_id": 66400,
        "meta_element_set_no": 999,
        "meta_rev_at_epoch": 597,
        "meta_bstar": 0.00036662,
        "meta_mean_motion_dot": 0.00014278,
        "meta_mean_motion_ddot": 0,
        "tle_line1": "1 66400U 25257W   25343.50002315  .00014278  00000+0  36662-3 0  9997",
        "tle_line2": "2 66400  53.1594 279.4037 0001248  92.1620   0.4562 15.39590418  5975"
      },
      "geometry": {
        "type": "Point",
        "coordinates": [
          82.67090402765571,
          19.916568256408926
        ]
      }
    }
  ]
}